ONEWEB-0589             
1 54655U 22166P   25317.15950617 -.00000039  00000+0 -12684-3 0  9991
2 54655  87.9179 287.0837 0001012  94.9595 265.1654 13.21824055143006
ONEWEB-0590             
1 54656U 22166Q   25317.18406245  .00000018  00000+0  10937-4 0  9993
2 54656  87.9185 287.0551 0001763  69.6605 290.4718 13.21827506142994
ONEWEB-0591             
1 54657U 22166R   25316.96863598 -.00000002  00000+0 -37240-4 0  9998
2 54657  87.9181 287.1218 0001776  81.5762 278.5573 13.21826189142995
ONEWEB-0592             
1 54658U 22166S   25316.97192154  .00000045  00000+0  78192-4 0  9999
2 54658  87.9193 287.0812 0001883  82.9942 277.1406 13.21827704142873
ONEWEB-0593             
1 54659U 22166T   25317.14634622 -.00000117  00000+0 -31544-3 0  9992
2 54659  87.9183 287.0762 0001804  88.8074 271.3267 13.21827904143000
ONEWEB-0594             
1 54660U 22166U   25317.16609447  .00000066  00000+0  12849-3 0  9991
2 54660  87.9186 287.0897 0001901  85.2444 274.8907 13.21828699143027
ONEWEB-0595             
1 54661U 22166V   25316.84026817  .00000044  00000+0  75287-4 0  9992
2 54661  87.9178 287.1288 0001994  79.9969 280.1390 13.21825683142955
ONEWEB-0596             
1 54662U 22166W   25317.19241999  .00000257  00000+0  58968-3 0  9994
2 54662  87.9182 287.0751 0001836  80.7396 279.3946 13.21827313143000
ONEWEB-0597             
1 54663U 22166X   25316.87153929  .00000143  00000+0  31371-3 0  9997
2 54663  87.9182 287.1436 0001736  86.0276 274.1056 13.21827966142960
ONEWEB-0600             
1 54664U 22166Y   25317.15622394  .00000014  00000+0  29442-5 0  9992
2 54664  87.9182 287.0774 0001808  88.3456 271.7885 13.21827425142974
ONEWEB-0601             
1 54665U 22166Z   25316.84520878  .00000038  00000+0  60832-4 0  9995
2 54665  87.9184 287.1572 0001590  86.8506 273.2810 13.21827844143129
ONEWEB-0602             
1 54666U 22166AA  25317.18830407 -.00000001  00000+0 -34446-4 0  9990
2 54666  87.9184 287.0926 0001927  95.5488 264.5866 13.21825411143012
ONEWEB-0603             
1 54667U 22166AB  25317.19407138  .00000163  00000+0  36326-3 0  9998
2 54667  87.9192 287.0283 0001799  87.4201 272.7138 13.21824388142944
ONEWEB-0604             
1 54668U 22166AC  25317.18254566 -.00000001  00000+0 -33030-4 0  9996
2 54668  87.9183 287.0527 0001779  90.6256 269.5082 13.21825203142905
ONEWEB-0605             
1 54669U 22166AD  25316.64609084 -.00000805  00000+0 -19814-2 0  9990
2 54669  87.9181 287.1885 0001225  75.4776 284.6494 13.21832118142904
ONEWEB-0606             
1 54670U 22166AE  25316.97025481  .00000021  00000+0  20360-4 0  9999
2 54670  87.9182 287.1344 0002048  81.0286 279.1079 13.21828310143009
ONEWEB-0607             
1 54671U 22166AF  25317.16444709 -.00000001  00000+0 -32954-4 0  9992
2 54671  87.9180 287.0595 0001741  88.1635 271.9699 13.21827530143001
ONEWEB-0608             
1 54672U 22166AG  25317.17102869 -.00000012  00000+0 -61689-4 0  9991
2 54672  87.9187 287.0438 0001298  88.1268 272.0014 13.21828191143012
ONEWEB-0610             
1 54673U 22166AH  25316.92419493  .00000089  00000+0  18459-3 0  9996
2 54673  87.9182 287.1281 0001255  92.8889 267.2389 13.21826116142889
ONEWEB-0611             
1 54674U 22166AJ  25316.99330550 -.00000041  00000+0 -12963-3 0  9994
2 54674  87.9182 287.1103 0002117  84.4505 275.6870 13.21825109142882
ONEWEB-0612             
1 54675U 22166AK  25316.62799146  .00000131  00000+0  28482-3 0  9996
2 54675  87.9183 287.1621 0001723  86.5769 273.5562 13.21826678142827
ONEWEB-0615             
1 54676U 22166AL  25316.68392673 -.00000036  00000+0 -11903-3 0  9993
2 54676  87.9183 287.1774 0001837  85.2944 274.8400 13.21824296142845
ONEWEB-0655             
1 54677U 22166AM  25317.18911529  .00000139  00000+0  30574-3 0  9994
2 54677  87.9180 287.0817 0001822  92.3325 267.8017 13.21829146142908
ONEWEB-0659             
1 54678U 22166AN  25316.97849950 -.00000034  00000+0 -11290-3 0  9999
2 54678  87.9181 287.1234 0001913  80.1767 279.9583 13.21827314142963
ONEWEB-0685             
1 54679U 22166AP  25316.97914369 -.00000031  00000+0 -10612-3 0  9991
2 54679  87.9181 287.1194 0001644  87.9068 272.2254 13.21831925142851
ONEWEB-0712             
1 54680U 22166AQ  25316.62066025 -.00000307  00000+0 -83744-3 0  9994
2 54680  87.9015 271.8996 0002053  96.8064 263.3301 13.16593803143566
ONEWEB-0714             
1 54681U 22166AR  25316.90936950  .00000006  00000+0 -17597-4 0  9998
2 54681  87.9183 287.1270 0001734  90.1055 270.0277 13.21824723142964
ONEWEB-0532             
1 55140U 23004A   25316.69118429  .00000069  00000+0  14403-3 0  9990
2 55140  87.9138  48.9080 0001320  93.1700 266.9582 13.17649748139076
ONEWEB-0533             
1 55141U 23004B   25317.17258433 -.00000338  00000+0 -97497-3 0  9990
2 55141  87.8975  33.5773 0001686 108.1715 251.9597 13.12441886139722
ONEWEB-0541             
1 55142U 23004C   25317.03353760 -.00000500  00000+0 -14458-2 0  9991
2 55142  87.8865  64.0910 0001585  97.2092 262.9216 13.11418449137611
ONEWEB-0543             
1 55143U 23004D   25317.14341951  .00000044  00000+0  79797-4 0  9993
2 55143  87.9194  18.4102 0002002 105.8224 254.3129 13.18687789141224
ONEWEB-0544             
1 55144U 23004E   25317.13681919  .00000060  00000+0  12018-3 0  9994
2 55144  87.9198  18.4014 0001998  99.8234 260.3124 13.18687957141226
ONEWEB-0560             
1 55145U 23004F   25317.13022424  .00000086  00000+0  18632-3 0  9991
2 55145  87.9207  18.3878 0002159  98.6303 261.5074 13.18688038141238
ONEWEB-0565             
1 55146U 23004G   25317.12362255  .00000119  00000+0  27028-3 0  9996
2 55146  87.9201  18.4384 0001968  84.4825 275.6532 13.18688954141226
ONEWEB-0567             
1 55147U 23004H   25317.11702490  .00000001  00000+0 -29523-4 0  9999
2 55147  87.9202  18.4036 0002053  89.4152 270.7215 13.18688517141225
ONEWEB-0569             
1 55148U 23004J   25317.12082362  .00000372  00000+0  98314-3 0  9993
2 55148  87.9022   3.1517 0002724  89.4878 270.6563 13.13468919141818
ONEWEB-0570             
1 55149U 23004K   25317.18301630 -.00000038  00000+0 -12969-3 0  9995
2 55149  87.9203  18.3903 0001469  84.1457 275.9842 13.18685673141223
ONEWEB-0571             
1 55150U 23004L   25317.17641788 -.00000006  00000+0 -49203-4 0  9994
2 55150  87.9201  18.3930 0002646  75.4497 284.6929 13.18685141141232
ONEWEB-0572             
1 55151U 23004M   25317.17718509  .00000138  00000+0  32325-3 0  9991
2 55151  87.9139  48.8208 0001727  95.2206 264.9122 13.17651743139037
ONEWEB-0573             
1 55152U 23004N   25317.16981315 -.00000039  00000+0 -13169-3 0  9995
2 55152  87.9194  18.4007 0001956  73.7618 286.3729 13.18688016141220
ONEWEB-0588             
1 55153U 23004P   25317.16321547  .00000021  00000+0  20225-4 0  9992
2 55153  87.9209  18.3936 0001609  85.6850 274.4466 13.18687687141222
ONEWEB-0598             
1 55154U 23004Q   25316.78260975 -.00000176  00000+0 -53246-3 0  9998
2 55154  87.8853  64.1706 0002153  92.1348 268.0027 13.11417010137536
ONEWEB-0599             
1 55155U 23004R   25316.68274456  .00000035  00000+0  56972-4 0  9999
2 55155  87.9137  48.9220 0001907 101.8682 258.2664 13.17651155138972
ONEWEB-0614             
1 55156U 23004S   25316.70122970 -.00000166  00000+0 -50425-3 0  9999
2 55156  87.8856  64.1964 0001259 100.5455 259.5815 13.11414100137465
ONEWEB-0616             
1 55157U 23004T   25316.72493655  .00000038  00000+0  64580-4 0  9997
2 55157  87.9137  48.9040 0002524 118.6534 241.4851 13.17652280139199
ONEWEB-0617             
1 55158U 23004U   25316.53676974  .00000314  00000+0  84892-3 0  9998
2 55158  87.8857  64.2081 0001416  91.4997 268.6293 13.11414311137468
ONEWEB-0618             
1 55159U 23004V   25316.81423181  .00019797  00000+0  12141-2 0  9992
2 55159  86.9052 265.3401 0014655  27.9740 332.2283 15.09948888149577
ONEWEB-0619             
1 55160U 23004W   25316.68106905  .00000028  00000+0  38531-4 0  9991
2 55160  87.9138  48.8871 0001473 117.6847 242.4434 13.17650829139086
ONEWEB-0620             
1 55161U 23004X   25317.06576602  .00000670  00000+0  18538-2 0  9996
2 55161  87.8859  64.1225 0001649  93.7979 266.3337 13.11415445137504
ONEWEB-0621             
1 55162U 23004Y   25317.01658896 -.00000453  00000+0 -13149-2 0  9992
2 55162  87.8869  64.0999 0001396 106.4734 253.6548 13.11416815137474
ONEWEB-0622             
1 55163U 23004Z   25317.02166434 -.00000531  00000+0 -15338-2 0  9995
2 55163  87.8854  64.1107 0001073  77.6218 282.5030 13.11415751137463
ONEWEB-0623             
1 55164U 23004AA  25316.67599854  .00000055  00000+0  10873-3 0  9991
2 55164  87.9131  48.9400 0000885 102.4550 257.6681 13.17644899139072
ONEWEB-0624             
1 55165U 23004AB  25317.14172207  .00000298  00000+0  78676-3 0  9998
2 55165  87.8963  33.5491 0001437 103.0387 257.0902 13.12918516139721
ONEWEB-0625             
1 55166U 23004AC  25317.19743671  .00000070  00000+0  14590-3 0  9996
2 55166  87.9126  48.8314 0001798 106.1666 253.9663 13.17643624139135
ONEWEB-0626             
1 55167U 23004AD  25317.18730258  .00000056  00000+0  11013-3 0  9994
2 55167  87.9132  48.8332 0002077  90.7837 269.3533 13.17652025139134
ONEWEB-0627             
1 55168U 23004AE  25317.17549098  .00000076  00000+0  16339-3 0  9992
2 55168  87.9131  48.8362 0001120  96.2898 263.8361 13.17648599139132
ONEWEB-0628             
1 55169U 23004AF  25317.19543490  .00000343  00000+0  91800-3 0  9998
2 55169  87.8972  33.5578 0001077 114.1674 245.9567 13.12445500139702
ONEWEB-0629             
1 55170U 23004AG  25316.69541860  .00000056  00000+0  11173-3 0  9999
2 55170  87.9126  48.9283 0001571 112.8518 247.2779 13.17649662139070
ONEWEB-0631             
1 55171U 23004AH  25317.15660948 -.00000030  00000+0 -10970-3 0  9999
2 55171  87.9219  18.3396 0001841  80.5395 279.5946 13.18687876141206
